*******************************************************************************
Ephemeris / WWW_USER Mon Mar 26 19:48:02 2018 Pasadena, USA      / Horizons    
*******************************************************************************
Target body name: Mimas (601)                     {source: sat389}
Center body name: Saturn Barycenter (6)           {source: sat389}
Center-site name: BODY CENTER
*******************************************************************************
Start time      : A.D. 2000-Jan-01 00:00:00.0000 TDB
Stop  time      : A.D. 2001-Jan-01 00:00:00.0000 TDB
Step-size       : 7200 minutes
*******************************************************************************
Center geodetic : 0.00000000,0.00000000,0.0000000 {E-lon(deg),Lat(deg),Alt(km)}
Center cylindric: 0.00000000,0.00000000,0.0000000 {E-lon(deg),Dxy(km),Dz(km)}
Center radii    : (undefined)                                                  
Output units    : AU-D                                                         
Output type     : GEOMETRIC cartesian states
Output format   : 2 (position and velocity)
Reference frame : ICRF/J2000.0                                                 
Coordinate systm: Ecliptic and Mean Equinox of Reference Epoch                 
*******************************************************************************
JDTDB
   X     Y     Z
   VX    VY    VZ
*******************************************************************************
$$SOE
2451754.500000000 = A.D. 2000-Jul-29 00:00:00.0000 TDB 
   5.525673708862663E-04  9.416007188527622E-04 -5.665337062778423E-04
  -7.464505328049845E-03  3.608620414036361E-03 -9.435241805438202E-04
2451759.500000000 = A.D. 2000-Aug-03 00:00:00.0000 TDB 
  -1.213851674063102E-03  1.271011578405093E-04  8.879120788890619E-05
  -5.907765991231811E-04 -7.380451790659764E-03  3.939179960824346E-03
2451764.500000000 = A.D. 2000-Aug-08 00:00:00.0000 TDB 
   3.492637973012835E-04 -1.093973140140657E-03  5.246944824289202E-04
   7.779380568866119E-03  1.537919311472759E-03 -1.794238800954199E-03
2451769.500000000 = A.D. 2000-Aug-13 00:00:00.0000 TDB 
   1.043654640728916E-03  5.463267717722795E-04 -4.153282935073836E-04
  -4.556912399322964E-03  6.295178955040049E-03 -2.677552618631957E-03
2451774.500000000 = A.D. 2000-Aug-18 00:00:00.0000 TDB 
  -9.882268427495978E-04  6.745152420092577E-04 -2.221744155853857E-04
  -4.819533039287389E-03 -5.888122598392922E-03  3.638450605252844E-03
2451779.500000000 = A.D. 2000-Aug-23 00:00:00.0000 TDB 
  -2.786950538262136E-04 -1.068288009833117E-03  5.814259746886307E-04
   7.933455354653266E-03 -2.179450878339997E-03  1.199007968003634E-04
2451784.500000000 = A.D. 2000-Aug-28 00:00:00.0000 TDB 
   1.253314805217115E-03  9.703869365733796E-06 -1.604644706216110E-04
  -6.018651722770090E-04  7.252430682938594E-03 -3.615177454469556E-03
2451789.500000000 = A.D. 2000-Sep-02 00:00:00.0000 TDB 
  -4.760859319647999E-04  1.029686557332196E-03 -4.627626483826200E-04
  -7.616797009709284E-03 -2.652468229814317E-03  2.277750585265681E-03
2451794.500000000 = A.D. 2000-Sep-07 00:00:00.0000 TDB 
  -8.397065561761003E-04 -7.568714947309864E-04  4.828775705403454E-04
   5.940814966066246E-03 -5.501959564366980E-03  2.050924927619069E-03
2451799.500000000 = A.D. 2000-Sep-12 00:00:00.0000 TDB 
   1.142480637274154E-03 -5.287724670481175E-04  1.288136230519004E-04
   3.416889974378299E-03  6.407192591889168E-03 -3.619469353135722E-03
2451804.500000000 = A.D. 2000-Sep-17 00:00:00.0000 TDB 
   1.664594063050180E-04  1.094329246953259E-03 -5.657328073537434E-04
  -8.162704504515913E-03  1.228872396032778E-03  3.452351726871242E-04
2451809.500000000 = A.D. 2000-Sep-22 00:00:00.0000 TDB 
  -1.170332011224271E-03 -2.289898404179511E-04  2.487140930168908E-04
   2.140348176678622E-03 -7.397101594584391E-03  3.430047088641321E-03
2451814.500000000 = A.D. 2000-Sep-27 00:00:00.0000 TDB 
   7.403734580678143E-04 -9.378714788051664E-04  3.809466531162431E-04
   6.637434071620233E-03  3.957194198341531E-03 -2.710382853479936E-03
2451819.500000000 = A.D. 2000-Oct-02 00:00:00.0000 TDB 
   7.574435803147423E-04  8.670366123632660E-04 -5.119702070868800E-04
  -6.530567796871812E-03  4.620562154465520E-03 -1.558264938845846E-03
2451824.500000000 = A.D. 2000-Oct-07 00:00:00.0000 TDB 
  -1.163195475231472E-03  3.680886253621869E-04 -5.543750973049312E-05
  -2.344612298304257E-03 -7.141543843540265E-03  3.770159973986170E-03
2451829.500000000 = A.D. 2000-Oct-12 00:00:00.0000 TDB 
   1.383099041531429E-04 -1.107819874406787E-03  5.297517463625902E-04
   8.239029492254758E-03  3.556072174440865E-04 -1.045524548034625E-03
2451834.500000000 = A.D. 2000-Oct-17 00:00:00.0000 TDB 
   1.149829315949913E-03  4.204023307429059E-04 -3.247522394897851E-04
  -3.316435784127679E-03  6.772311585314088E-03 -2.979463794423143E-03
2451839.500000000 = A.D. 2000-Oct-22 00:00:00.0000 TDB 
  -8.233278182164640E-04  8.587666482082270E-04 -3.380939585021368E-04
  -6.044017555290926E-03 -4.851256918659075E-03  2.983399779860612E-03
2451844.500000000 = A.D. 2000-Oct-27 00:00:00.0000 TDB 
  -5.100693472967557E-04 -9.756881113620285E-04  5.275579891401575E-04
   7.574091260922507E-03 -3.526804288672694E-03  9.858791418886734E-04
2451849.500000000 = A.D. 2000-Nov-01 00:00:00.0000 TDB 
   1.251083835329619E-03 -1.328750594375243E-04 -5.392663158289700E-05
   7.301527855632329E-04  7.269458940034021E-03 -3.627132622866935E-03
2451854.500000000 = A.D. 2000-Nov-06 00:00:00.0000 TDB 
  -2.617148291332042E-04  1.111929928161731E-03 -5.203317384732830E-04
  -7.944831680989226E-03 -1.365892306645235E-03  1.402965222264594E-03
2451859.500000000 = A.D. 2000-Nov-11 00:00:00.0000 TDB 
  -1.015978301833040E-03 -5.640388599942963E-04  3.677069936718588E-04
   4.643591812423227E-03 -6.469273298159444E-03  2.753102758580929E-03
2451864.500000000 = A.D. 2000-Nov-16 00:00:00.0000 TDB 
   1.027588527759881E-03 -6.574074099913124E-04  2.330326679166035E-04
   4.734271877982113E-03  5.916605054611620E-03 -3.316068689320997E-03
2451869.500000000 = A.D. 2000-Nov-21 00:00:00.0000 TDB 
   3.632686495205249E-04  1.075673080781620E-03 -5.597293316632064E-04
  -7.757318501070727E-03  2.326798733435305E-03 -4.869637139849360E-04
2451874.500000000 = A.D. 2000-Nov-26 00:00:00.0000 TDB 
  -1.227173240397751E-03  7.276378620232808E-06  9.748034906287882E-05
   3.880981824417642E-04 -7.488004397547295E-03  3.658232836731903E-03
2451879.500000000 = A.D. 2000-Dec-01 00:00:00.0000 TDB 
   5.197125886809299E-04 -1.009948049337918E-03  4.576738406768698E-04
   7.619004540580147E-03  2.862722171654330E-03 -2.024000881803170E-03
2451884.500000000 = A.D. 2000-Dec-06 00:00:00.0000 TDB 
   8.949469226720322E-04  7.682821665230003E-04 -4.506877749546239E-04
  -5.648023205963752E-03  5.406533434302264E-03 -2.241688726799602E-03
2451889.500000000 = A.D. 2000-Dec-11 00:00:00.0000 TDB 
  -1.094331638935600E-03  5.692352937463190E-04 -2.003712146620500E-04
  -3.800891777770708E-03 -6.404428872823198E-03  3.475384935298968E-03
2451894.500000000 = A.D. 2000-Dec-16 00:00:00.0000 TDB 
  -1.418608468179738E-04 -1.077764774023265E-03  5.491968173600208E-04
   8.355855783112348E-03 -1.125151560862198E-03 -5.461775029133252E-05
2451899.500000000 = A.D. 2000-Dec-21 00:00:00.0000 TDB 
   1.199716685963051E-03  2.628926352786816E-04 -2.186255994411771E-04
  -2.039051578870018E-03  7.186251039317806E-03 -3.460504324156208E-03
2451904.500000000 = A.D. 2000-Dec-26 00:00:00.0000 TDB 
  -6.728434774542204E-04  9.730660857109085E-04 -4.433061097075981E-04
  -6.825194678224992E-03 -3.726353671729068E-03  2.361285536377245E-03
2451909.500000000 = A.D. 2000-Dec-31 00:00:00.0000 TDB 
  -7.621190939135137E-04 -8.342707406526365E-04  4.757942075317516E-04
   6.610730771598509E-03 -4.756706599254017E-03  1.953749998595299E-03
